{
  "type": "FeatureCollection",
  "name": "Poá",
  "technology": "Rede Neutra",
  "color": "#3b82f6",
  "features": [
    {
      "type": "Feature",
      "properties": {
        "name": "SPPOA001H",
        "description": "<center><table><tr bgcolor=\"#E3E3F3\">\n<th>Id SGF</th>\n<td>80829</td>\n</tr><tr bgcolor=\"\">\n<th>Codigo</th>\n<td>SPPOA001H</td>\n</tr><tr bgcolor=\"#E3E3F3\">\n<th>Situacao</th>\n<td>Ativo</td>\n</tr><tr bgcolor=\"\">\n<th>Status</th>\n<td>Existente</td>\n</tr></table></center>",
        "technology": "Rede Neutra",
        "region": "SPPOA001H",
        "pop": "POP Central"
      },
      "geometry": {
        "type": "Polygon",
        "coordinates": [
          [
            [
              -46.35827,
              -23.507755
            ],
            [
              -46.359078355256,
              -23.5081075666669
            ],
            [
              -46.3590068207367,
              -23.50824155543789
            ],
            [
              -46.3587168484034,
              -23.5087155037608
            ],
            [
              -46.3584194689124,
              -23.5089385811175
            ],
            [
              -46.3584005151169,
              -23.5092816087421
            ],
            [
              -46.3583741541638,
              -23.5094395915164
            ],
            [
              -46.35830083450291,
              -23.5097208707157
            ],
            [
              -46.35815191358299,
              -23.5098596318142
            ],
            [
              -46.3581035229958,
              -23.5099764398315
            ],
            [
              -46.35768397072489,
              -23.5108199050128
            ],
            [
              -46.3574539453263,
              -23.5116679199376
            ],
            [
              -46.3569924338066,
              -23.5128294459789
            ],
            [
              -46.3570188844455,
              -23.5126521370491
            ],
            [
              -46.3568576305495,
              -23.5132947164133
            ],
            [
              -46.3564407846799,
              -23.5131488574619
            ],
            [
              -46.3563829506901,
              -23.5131376994656
            ],
            [
              -46.3561164150027,
              -23.5131263024554
            ],
            [
              -46.3554217833809,
              -23.5129484820785
            ],
            [
              -46.35509113161559,
              -23.5128927254358
            ],
            [
              -46.3533381316156,
              -23.5124947254358
            ],
            [
              -46.35312036501981,
              -23.5124600287362
            ],
            [
              -46.3526066291443,
              -23.5122764275597
            ],
            [
              -46.35243205594371,
              -23.5122082476097
            ],
            [
              -46.35214434772989,
              -23.5122052541359
            ],
            [
              -46.35204245125389,
              -23.5122741040332
            ],
            [
              -46.3519195763091,
              -23.5123085288615
            ],
            [
              -46.3518071903676,
              -23.5122636267546
            ],
            [
              -46.3516992998452,
              -23.5123190061401
            ],
            [
              -46.351649137901,
              -23.5125635579154
            ],
            [
              -46.3512806817894,
              -23.5128658054404
            ],
            [
              -46.3511450527973,
              -23.5129968053378
            ],
            [
              -46.3510854104879,
              -23.5130628188314
            ],
            [
              -46.3510257677163,
              -23.5131304424748
            ],
            [
              -46.350698132322,
              -23.5134745529309
            ],
            [
              -46.3506208302106,
              -23.5135128985935
            ],
            [
              -46.3503551334217,
              -23.5137976945723
            ],
            [
              -46.35009658989599,
              -23.5140195842284
            ],
            [
              -46.3493516436847,
              -23.5145399071959
            ],
            [
              -46.3489290589138,
              -23.5148130210553
            ],
            [
              -46.348634496234,
              -23.514939539996
            ],
            [
              -46.3484774577863,
              -23.5149228850422
            ],
            [
              -46.3484143791988,
              -23.5149840067888
            ],
            [
              -46.34816783930041,
              -23.5152045288213
            ],
            [
              -46.3479739393517,
              -23.515327486271
            ],
            [
              -46.3477454965272,
              -23.5155936257971
            ],
            [
              -46.3476698728204,
              -23.5157086729843
            ],
            [
              -46.3473549322787,
              -23.5162747719305
            ],
            [
              -46.34716715912191,
              -23.5164608694088
            ],
            [
              -46.3470113141375,
              -23.5166117386892
            ],
            [
              -46.3467561939674,
              -23.51674535910981
            ],
            [
              -46.3458783683845,
              -23.5172039847474
            ],
            [
              -46.3454865874202,
              -23.5174044839125
            ],
            [
              -46.3453358878969,
              -23.5174151878228
            ],
            [
              -46.3449557969477,
              -23.51765237945691
            ],
            [
              -46.3446490489426,
              -23.5179710031881
            ],
            [
              -46.3444969327663,
              -23.5180638713007
            ],
            [
              -46.3443141375581,
              -23.5181945624722
            ],
            [
              -46.34411644722461,
              -23.5182101189488
            ],
            [
              -46.34384175427691,
              -23.5182968234831
            ],
            [
              -46.3431550431047,
              -23.5183507500637
            ],
            [
              -46.3429770445799,
              -23.5182733295781
            ],
            [
              -46.3423108838201,
              -23.5186879826631
            ],
            [
              -46.3420775385241,
              -23.5188335598613
            ],
            [
              -46.3417954280456,
              -23.5181612237513
            ],
            [
              -46.3415830964929,
              -23.5179251262125
            ],
            [
              -46.3415985858553,
              -23.517693839086
            ],
            [
              -46.3415068883166,
              -23.517585214644
            ],
            [
              -46.3412803954196,
              -23.5175543400797
            ],
            [
              -46.3411211228138,
              -23.517402558274
            ],
            [
              -46.3401380453473,
              -23.5173850556231
            ],
            [
              -46.34008276690291,
              -23.5174599843209
            ],
            [
              -46.3401158870599,
              -23.5175250327387
            ],
            [
              -46.3398243897477,
              -23.5175565649389
            ],
            [
              -46.3396496470191,
              -23.5175535201592
            ],
            [
              -46.3391325993132,
              -23.5174528953299
            ],
            [
              -46.339151754108,
              -23.516854452047
            ],
            [
              -46.3389781811525,
              -23.5165601916096
            ],
            [
              -46.3385243496075,
              -23.51653380183
            ],
            [
              -46.338531,
              -23.516451
            ],
            [
              -46.33855,
              -23.516244
            ],
            [
              -46.338561,
              -23.516065
            ],
            [
              -46.338577,
              -23.515803
            ],
            [
              -46.33858,
              -23.5155
            ],
            [
              -46.338588,
              -23.515283
            ],
            [
              -46.338561,
              -23.515103
            ],
            [
              -46.338544,
              -23.514927
            ],
            [
              -46.338503,
              -23.514764
            ],
            [
              -46.338467,
              -23.514625
            ],
            [
              -46.33844,
              -23.514518
            ],
            [
              -46.338317,
              -23.514036
            ],
            [
              -46.338207,
              -23.513641
            ],
            [
              -46.338091,
              -23.51318699999999
            ],
            [
              -46.338025,
              -23.512894
            ],
            [
              -46.337981,
              -23.512635
            ],
            [
              -46.337942,
              -23.512491
            ],
            [
              -46.337916,
              -23.512384
            ],
            [
              -46.337893,
              -23.512301
            ],
            [
              -46.337887,
              -23.512207
            ],
            [
              -46.337882,
              -23.512114
            ],
            [
              -46.337879,
              -23.51207
            ],
            [
              -46.337878,
              -23.512019
            ],
            [
              -46.337866,
              -23.511834
            ],
            [
              -46.337857,
              -23.511721
            ],
            [
              -46.337821,
              -23.51156
            ],
            [
              -46.337805,
              -23.511448
            ],
            [
              -46.337773,
              -23.51126
            ],
            [
              -46.337672,
              -23.510658
            ],
            [
              -46.337624,
              -23.510384
            ],
            [
              -46.33758,
              -23.51011
            ],
            [
              -46.33753500000001,
              -23.509805
            ],
            [
              -46.33751300000001,
              -23.509583
            ],
            [
              -46.33749899999999,
              -23.509393
            ],
            [
              -46.337489,
              -23.509203
            ],
            [
              -46.337483,
              -23.509012
            ],
            [
              -46.337493,
              -23.508721
            ],
            [
              -46.3375,
              -23.50843
            ],
            [
              -46.337503,
              -23.508139
            ],
            [
              -46.337506,
              -23.508003
            ],
            [
              -46.337528,
              -23.507731
            ],
            [
              -46.337626,
              -23.5072
            ],
            [
              -46.337728,
              -23.506818
            ],
            [
              -46.3381098464931,
              -23.5067066227868
            ],
            [
              -46.3382917936976,
              -23.506710176892
            ],
            [
              -46.3388749472045,
              -23.5069675541052
            ],
            [
              -46.339079,
              -23.507069
            ],
            [
              -46.339318,
              -23.50711
            ],
            [
              -46.339544,
              -23.507137
            ],
            [
              -46.339728,
              -23.507244
            ],
            [
              -46.33994700000001,
              -23.507285
            ],
            [
              -46.340291,
              -23.507326
            ],
            [
              -46.3406980515472,
              -23.5072094757365
            ],
            [
              -46.3409120515472,
              -23.5072094757365
            ],
            [
              -46.3414003451964,
              -23.5072473987293
            ],
            [
              -46.3418323451964,
              -23.5073223987293
            ],
            [
              -46.34196833809121,
              -23.5073510100882
            ],
            [
              -46.34212233809119,
              -23.5073990100882
            ],
            [
              -46.3423620128865,
              -23.5074389094944
            ],
            [
              -46.3426320128865,
              -23.5074499094944
            ],
            [
              -46.3428872436387,
              -23.5074670960467
            ],
            [
              -46.3429872436387,
              -23.5074820960467
            ],
            [
              -46.34308551336319,
              -23.5074902387366
            ],
            [
              -46.3432855133632,
              -23.5075212387366
            ],
            [
              -46.343333,
              -23.50764
            ],
            [
              -46.34345500000001,
              -23.50764
            ],
            [
              -46.343576,
              -23.507641
            ],
            [
              -46.343639,
              -23.507641
            ],
            [
              -46.343796,
              -23.507653
            ],
            [
              -46.344751,
              -23.507729
            ],
            [
              -46.34483400000001,
              -23.507736
            ],
            [
              -46.34555899999999,
              -23.507793
            ],
            [
              -46.345956,
              -23.507825
            ],
            [
              -46.3466997379803,
              -23.5077450356952
            ],
            [
              -46.34680073798031,
              -23.5077530356952
            ],
            [
              -46.346940255287,
              -23.5077821177039
            ],
            [
              -46.347029255287,
              -23.5078031177039
            ],
            [
              -46.3471405922845,
              -23.5077978415794
            ],
            [
              -46.3472815922845,
              -23.50779284157939
            ],
            [
              -46.3474275106938,
              -23.5078096848327
            ],
            [
              -46.3476055106938,
              -23.5078136848327
            ],
            [
              -46.3478061950846,
              -23.5078398713392
            ],
            [
              -46.3479521950846,
              -23.5078488713392
            ],
            [
              -46.34820260082741,
              -23.507861001294
            ],
            [
              -46.3482666008274,
              -23.507853001294
            ],
            [
              -46.3483400432929,
              -23.50785571445
            ],
            [
              -46.34847404329291,
              -23.50780371445
            ],
            [
              -46.348685,
              -23.50779
            ],
            [
              -46.348891,
              -23.507735
            ],
            [
              -46.34906,
              -23.507712
            ],
            [
              -46.349241,
              -23.507728
            ],
            [
              -46.349405,
              -23.507733
            ],
            [
              -46.349579,
              -23.507733
            ],
            [
              -46.34986899999999,
              -23.507701
            ],
            [
              -46.35010799999999,
              -23.507662
            ],
            [
              -46.350187,
              -23.507669
            ],
            [
              -46.350331,
              -23.507687
            ],
            [
              -46.350485,
              -23.507687
            ],
            [
              -46.350654,
              -23.507675
            ],
            [
              -46.350783,
              -23.507616
            ],
            [
              -46.35087699999999,
              -23.507538
            ],
            [
              -46.35099600000001,
              -23.50742899999999
            ],
            [
              -46.351054,
              -23.507375
            ],
            [
              -46.351113,
              -23.50732199999999
            ],
            [
              -46.35123500000001,
              -23.507187
            ],
            [
              -46.35141600000001,
              -23.507046
            ],
            [
              -46.351471,
              -23.506984
            ],
            [
              -46.351525,
              -23.506923
            ],
            [
              -46.351753,
              -23.506724
            ],
            [
              -46.35182,
              -23.506644
            ],
            [
              -46.351902,
              -23.506597
            ],
            [
              -46.35195700000001,
              -23.506492
            ],
            [
              -46.351969,
              -23.506426
            ],
            [
              -46.352019,
              -23.506298
            ],
            [
              -46.352032,
              -23.506242
            ],
            [
              -46.352044,
              -23.506186
            ],
            [
              -46.352121,
              -23.506079
            ],
            [
              -46.352222,
              -23.506013
            ],
            [
              -46.352322,
              -23.505938
            ],
            [
              -46.352414,
              -23.505903
            ],
            [
              -46.35259200000001,
              -23.505819
            ],
            [
              -46.352826,
              -23.505707
            ],
            [
              -46.352896,
              -23.505678
            ],
            [
              -46.35296499999999,
              -23.50565
            ],
            [
              -46.353081,
              -23.505582
            ],
            [
              -46.353173,
              -23.505502
            ],
            [
              -46.35325099999999,
              -23.505428
            ],
            [
              -46.35333,
              -23.505354
            ],
            [
              -46.35336899999999,
              -23.505235
            ],
            [
              -46.35337200000001,
              -23.505199
            ],
            [
              -46.353375,
              -23.505162
            ],
            [
              -46.353382,
              -23.50508900000001
            ],
            [
              -46.353431,
              -23.50498
            ],
            [
              -46.353503,
              -23.504891
            ],
            [
              -46.35354000000001,
              -23.504869
            ],
            [
              -46.353568,
              -23.504852
            ],
            [
              -46.353634,
              -23.504813
            ],
            [
              -46.353947,
              -23.505044
            ],
            [
              -46.354119,
              -23.505172
            ],
            [
              -46.35439400000001,
              -23.505375
            ],
            [
              -46.354936,
              -23.505776
            ],
            [
              -46.356673,
              -23.50706
            ],
            [
              -46.356963,
              -23.507186
            ],
            [
              -46.35827,
              -23.507755
            ]
          ]
        ]
      }
    },
    {
      "type": "Feature",
      "properties": {
        "name": "SPPOA002H",
        "description": "<center><table><tr bgcolor=\"#E3E3F3\">\n<th>Id SGF</th>\n<td>81051</td>\n</tr><tr bgcolor=\"\">\n<th>Codigo</th>\n<td>SPPOA002H</td>\n</tr><tr bgcolor=\"#E3E3F3\">\n<th>Situacao</th>\n<td>Ativo</td>\n</tr><tr bgcolor=\"\">\n<th>Status</th>\n<td>Existente</td>\n</tr></table></center>",
        "technology": "Rede Neutra",
        "region": "SPPOA002H",
        "pop": "POP Central"
      },
      "geometry": {
        "type": "Polygon",
        "coordinates": [
          [
            [
              -46.36791000000001,
              -23.525217
            ],
            [
              -46.367795,
              -23.52550099999999
            ],
            [
              -46.36744300000001,
              -23.526165
            ],
            [
              -46.3666667235397,
              -23.5273078429646
            ],
            [
              -46.3665380202698,
              -23.527404258077
            ],
            [
              -46.3662956289462,
              -23.5274685348988
            ],
            [
              -46.36584086042989,
              -23.5275466293795
            ],
            [
              -46.365453057508,
              -23.5276643756223
            ],
            [
              -46.3649631970781,
              -23.5275037462427
            ],
            [
              -46.36459899999999,
              -23.527469
            ],
            [
              -46.364282198575,
              -23.5276297590911
            ],
            [
              -46.363660198575,
              -23.5278057590911
            ],
            [
              -46.36295922279481,
              -23.5279161634461
            ],
            [
              -46.3627902227948,
              -23.5278511634461
            ],
            [
              -46.3626889527875,
              -23.5278585412828
            ],
            [
              -46.3626255502467,
              -23.5278598960535
            ],
            [
              -46.36255955024669,
              -23.5278758960535
            ],
            [
              -46.362485271857,
              -23.5279070822884
            ],
            [
              -46.362372271857,
              -23.5279390822883
            ],
            [
              -46.3622884217743,
              -23.5279671232939
            ],
            [
              -46.3621784217743,
              -23.5280091232939
            ],
            [
              -46.3620817941479,
              -23.5280569995143
            ],
            [
              -46.3619737941479,
              -23.5281129995143
            ],
            [
              -46.3618225172292,
              -23.5285132172788
            ],
            [
              -46.3607772857733,
              -23.5305524958308
            ],
            [
              -46.35996022628759,
              -23.5306038683968
            ],
            [
              -46.3598259810581,
              -23.5286035899244
            ],
            [
              -46.3597839810581,
              -23.5286095899244
            ],
            [
              -46.3597353584089,
              -23.5285538425845
            ],
            [
              -46.3595374635384,
              -23.5286153242384
            ],
            [
              -46.3594079818573,
              -23.5286833977303
            ],
            [
              -46.3592863478895,
              -23.5287528610382
            ],
            [
              -46.3591763881303,
              -23.5288506202355
            ],
            [
              -46.35914238813029,
              -23.5288866202355
            ],
            [
              -46.3590651556662,
              -23.5289496958631
            ],
            [
              -46.3590081556662,
              -23.5290266958631
            ],
            [
              -46.3589281514758,
              -23.529113257817
            ],
            [
              -46.35886515147579,
              -23.529186257817
            ],
            [
              -46.3587894071218,
              -23.5292538546188
            ],
            [
              -46.3586994071218,
              -23.5293138546188
            ],
            [
              -46.3586260551881,
              -23.529366664964
            ],
            [
              -46.3585740551881,
              -23.529388664964
            ],
            [
              -46.358475660464,
              -23.5294164349188
            ],
            [
              -46.3583594100235,
              -23.5294349011555
            ],
            [
              -46.3582381229784,
              -23.5294628025338
            ],
            [
              -46.3580310210801,
              -23.5294717365317
            ],
            [
              -46.3576496312847,
              -23.5293853000434
            ],
            [
              -46.3572972845149,
              -23.5277026265906
            ],
            [
              -46.35703536471139,
              -23.5275612261921
            ],
            [
              -46.3567668194833,
              -23.5274880753071
            ],
            [
              -46.3566587703031,
              -23.5274451334883
            ],
            [
              -46.3565621731169,
              -23.5265014049604
            ],
            [
              -46.357828,
              -23.526823
            ],
            [
              -46.358201,
              -23.526861
            ],
            [
              -46.358606,
              -23.526775
            ],
            [
              -46.3595182231134,
              -23.5268504097751
            ],
            [
              -46.35988300000001,
              -23.526594
            ],
            [
              -46.359931,
              -23.526579
            ],
            [
              -46.360375,
              -23.526516
            ],
            [
              -46.360821,
              -23.526428
            ],
            [
              -46.36201,
              -23.525934
            ],
            [
              -46.362066,
              -23.525922
            ],
            [
              -46.3629395662832,
              -23.5258947035589
            ],
            [
              -46.36294552321431,
              -23.525866931889
            ],
            [
              -46.3628632226515,
              -23.5254473570289
            ],
            [
              -46.3628952832306,
              -23.5252892033152
            ],
            [
              -46.3628748432282,
              -23.5252521714519
            ],
            [
              -46.3628008432282,
              -23.5251651714519
            ],
            [
              -46.3625465794374,
              -23.5249269288875
            ],
            [
              -46.3624167836928,
              -23.5248151888316
            ],
            [
              -46.3622167099718,
              -23.5246763004294
            ],
            [
              -46.36203889323261,
              -23.5245783986099
            ],
            [
              -46.362006856575,
              -23.5245550149074
            ],
            [
              -46.3616830240182,
              -23.5243869385685
            ],
            [
              -46.3614873221171,
              -23.5243067600233
            ],
            [
              -46.36084790996519,
              -23.5241970277633
            ],
            [
              -46.36063728722,
              -23.5227046475634
            ],
            [
              -46.360396,
              -23.522715
            ],
            [
              -46.36018,
              -23.522711
            ],
            [
              -46.3601689643397,
              -23.5227877812735
            ],
            [
              -46.3576719643397,
              -23.5227367812735
            ],
            [
              -46.355847,
              -23.522493
            ],
            [
              -46.3564282452955,
              -23.5205227957942
            ],
            [
              -46.35699257631871,
              -23.5205921044518
            ],
            [
              -46.35705912133631,
              -23.5205900595445
            ],
            [
              -46.3571238091813,
              -23.5205818133579
            ],
            [
              -46.3571294970263,
              -23.5205631754576
            ],
            [
              -46.3571934970263,
              -23.5205451754576
            ],
            [
              -46.3572311961871,
              -23.5205153068645
            ],
            [
              -46.35729019618709,
              -23.5204883068645
            ],
            [
              -46.35731390039349,
              -23.5204598003712
            ],
            [
              -46.3574399003935,
              -23.5203768003712
            ],
            [
              -46.3575099232661,
              -23.5203170849463
            ],
            [
              -46.3577697246697,
              -23.52013224698999
            ],
            [
              -46.35794672466971,
              -23.51998824699
            ],
            [
              -46.35805311393521,
              -23.52000574248
            ],
            [
              -46.3581061139352,
              -23.51995174248
            ],
            [
              -46.3581425010895,
              -23.5199099811019
            ],
            [
              -46.3581875010895,
              -23.5198489811019
            ],
            [
              -46.3582046699217,
              -23.5198221537967
            ],
            [
              -46.3582406699217,
              -23.5197571537967
            ],
            [
              -46.35826575963311,
              -23.5196984801591
            ],
            [
              -46.3583167596331,
              -23.5195564801591
            ],
            [
              -46.3583258484681,
              -23.519508533422
            ],
            [
              -46.3583408484681,
              -23.519423533422
            ],
            [
              -46.3583537769733,
              -23.5193785248299
            ],
            [
              -46.3583927728836,
              -23.5192491986967
            ],
            [
              -46.35842965694,
              -23.5191633781316
            ],
            [
              -46.3584502962986,
              -23.519094841285
            ],
            [
              -46.3584995491069,
              -23.5190361996966
            ],
            [
              -46.3585415491069,
              -23.5189591996966
            ],
            [
              -46.35861532717839,
              -23.5188573698114
            ],
            [
              -46.3588217673035,
              -23.5187651552447
            ],
            [
              -46.35890872328631,
              -23.5187247593506
            ],
            [
              -46.358850342122,
              -23.518632697479
            ],
            [
              -46.35887973357131,
              -23.5186041014299
            ],
            [
              -46.3589372767969,
              -23.5185689756789
            ],
            [
              -46.3590473383722,
              -23.5185119201527
            ],
            [
              -46.35911533837211,
              -23.5184899201527
            ],
            [
              -46.3592128458289,
              -23.5184352128617
            ],
            [
              -46.3592429560611,
              -23.5184230090139
            ],
            [
              -46.3592835663636,
              -23.518417950416
            ],
            [
              -46.35996281424309,
              -23.5182259640627
            ],
            [
              -46.35988119591829,
              -23.51810994564
            ],
            [
              -46.358664032718,
              -23.51637687062
            ],
            [
              -46.3583630430589,
              -23.5159093798367
            ],
            [
              -46.3580772784773,
              -23.5155086653957
            ],
            [
              -46.3578678094602,
              -23.5152144103993
            ],
            [
              -46.3574924774127,
              -23.5146661847573
            ],
            [
              -46.3573604774127,
              -23.5144641847573
            ],
            [
              -46.3576133954769,
              -23.514311076612
            ],
            [
              -46.3575763954769,
              -23.514255076612
            ],
            [
              -46.3568296984769,
              -23.5134060227064
            ],
            [
              -46.3568576305495,
              -23.5132947164133
            ],
            [
              -46.3570188844455,
              -23.5126521370491
            ],
            [
              -46.3571565437931,
              -23.5120900825803
            ],
            [
              -46.3573037364098,
              -23.5114739529685
            ],
            [
              -46.3576993457863,
              -23.5110522890208
            ],
            [
              -46.3581092632731,
              -23.5101661548535
            ],
            [
              -46.3581240092951,
              -23.5100675120636
            ],
            [
              -46.35817875781629,
              -23.5099702594928
            ],
            [
              -46.35837627040821,
              -23.5097754311332
            ],
            [
              -46.3584005151169,
              -23.5092816087421
            ],
            [
              -46.3584135313652,
              -23.5089368383328
            ],
            [
              -46.35873508101249,
              -23.5086967125387
            ],
            [
              -46.3589539430039,
              -23.5085288695632
            ],
            [
              -46.35903031516731,
              -23.5083008491167
            ],
            [
              -46.3591417877953,
              -23.5079917058186
            ],
            [
              -46.35989512233149,
              -23.5083904372061
            ],
            [
              -46.3604838763453,
              -23.50870125439261
            ],
            [
              -46.3606362322347,
              -23.5088953402304
            ],
            [
              -46.36149199999999,
              -23.509393
            ],
            [
              -46.361944226097,
              -23.509679248102
            ],
            [
              -46.3625618427224,
              -23.5092950872861
            ],
            [
              -46.362540241736,
              -23.5092305263244
            ],
            [
              -46.3625959723576,
              -23.5092190283329
            ],
            [
              -46.36261267668569,
              -23.5093135774704
            ],
            [
              -46.361996795762,
              -23.5097141779153
            ],
            [
              -46.36247,
              -23.510018
            ],
            [
              -46.3628069760818,
              -23.5102157141269
            ],
            [
              -46.3634085363576,
              -23.5096226271581
            ],
            [
              -46.3633645672042,
              -23.5095494180636
            ],
            [
              -46.363403206083,
              -23.5095254584483
            ],
            [
              -46.363459536884,
              -23.5096126235032
            ],
            [
              -46.3628346077066,
              -23.5102305786634
            ],
            [
              -46.3632850746782,
              -23.5104949300885
            ],
            [
              -46.3632145,
              -23.510561
            ],
            [
              -46.3637647446598,
              -23.5111230937562
            ],
            [
              -46.36341257421531,
              -23.5113742124121
            ],
            [
              -46.36311082919969,
              -23.5115987467596
            ],
            [
              -46.3628626003073,
              -23.5117805579212
            ],
            [
              -46.3627436003073,
              -23.5118595579212
            ],
            [
              -46.36267336551469,
              -23.5118904494154
            ],
            [
              -46.3625017093782,
              -23.5123550774391
            ],
            [
              -46.3624909857811,
              -23.5124357353818
            ],
            [
              -46.3624886835255,
              -23.5125048461406
            ],
            [
              -46.3635360695628,
              -23.5117229944896
            ],
            [
              -46.36359861093789,
              -23.5117359629478
            ],
            [
              -46.3643582684555,
              -23.511158142789
            ],
            [
              -46.3644634425736,
              -23.51124325076
            ],
            [
              -46.3645973606949,
              -23.5111829711015
            ],
            [
              -46.3650583606949,
              -23.51148397110151
            ],
            [
              -46.36531700502091,
              -23.5117059720376
            ],
            [
              -46.36575556172579,
              -23.5116692099335
            ],
            [
              -46.36582032996871,
              -23.5119711113269
            ],
            [
              -46.36583,
              -23.512077
            ],
            [
              -46.36593200000001,
              -23.512119
            ],
            [
              -46.366109,
              -23.512172
            ],
            [
              -46.366148,
              -23.512301
            ],
            [
              -46.36623099999999,
              -23.512447
            ],
            [
              -46.366534,
              -23.512801
            ],
            [
              -46.366704,
              -23.513149
            ],
            [
              -46.36683300000001,
              -23.513646
            ],
            [
              -46.366615,
              -23.514144
            ],
            [
              -46.36659,
              -23.514256
            ],
            [
              -46.366593,
              -23.514731
            ],
            [
              -46.366715,
              -23.515232
            ],
            [
              -46.366719,
              -23.515591
            ],
            [
              -46.366667,
              -23.515771
            ],
            [
              -46.366615,
              -23.516027
            ],
            [
              -46.366587,
              -23.516382
            ],
            [
              -46.36662700000001,
              -23.516554
            ],
            [
              -46.366753,
              -23.516816
            ],
            [
              -46.36684099999999,
              -23.516936
            ],
            [
              -46.36688000000001,
              -23.517686
            ],
            [
              -46.366947,
              -23.518008
            ],
            [
              -46.367153,
              -23.518359
            ],
            [
              -46.367552,
              -23.518685
            ],
            [
              -46.367963,
              -23.519198
            ],
            [
              -46.368218,
              -23.519699
            ],
            [
              -46.368546,
              -23.520728
            ],
            [
              -46.36864600000001,
              -23.521302
            ],
            [
              -46.368692,
              -23.522765
            ],
            [
              -46.368651,
              -23.523254
            ],
            [
              -46.36859,
              -23.523427
            ],
            [
              -46.367982,
              -23.524927
            ],
            [
              -46.36791000000001,
              -23.525217
            ]
          ]
        ]
      }
    },
    {
      "type": "Feature",
      "properties": {
        "name": "SPPOA003H",
        "description": "<center><table><tr bgcolor=\"#E3E3F3\">\n<th>Id SGF</th>\n<td>81291</td>\n</tr><tr bgcolor=\"\">\n<th>Codigo</th>\n<td>SPPOA003H</td>\n</tr><tr bgcolor=\"#E3E3F3\">\n<th>Situacao</th>\n<td>Ativo</td>\n</tr><tr bgcolor=\"\">\n<th>Status</th>\n<td>Existente</td>\n</tr></table></center>",
        "technology": "Rede Neutra",
        "region": "SPPOA003H",
        "pop": "POP Central"
      },
      "geometry": {
        "type": "Polygon",
        "coordinates": [
          [
            [
              -46.3576210932591,
              -23.5287777245309
            ],
            [
              -46.3577269201882,
              -23.5293130119051
            ],
            [
              -46.3573164717493,
              -23.5296506963998
            ],
            [
              -46.356911956034,
              -23.5310237973808
            ],
            [
              -46.35493838956129,
              -23.5306161078808
            ],
            [
              -46.3550335200209,
              -23.5313794738843
            ],
            [
              -46.3559187937778,
              -23.5318742368249
            ],
            [
              -46.3555597059044,
              -23.5323097644269
            ],
            [
              -46.354788,
              -23.531834
            ],
            [
              -46.354573,
              -23.531706
            ],
            [
              -46.3519768038208,
              -23.5302004631148
            ],
            [
              -46.3518165315382,
              -23.5300274564086
            ],
            [
              -46.350296,
              -23.52922
            ],
            [
              -46.34997700000001,
              -23.529036
            ],
            [
              -46.3501578992319,
              -23.5288694531242
            ],
            [
              -46.3501609538222,
              -23.5288601733479
            ],
            [
              -46.34973699999999,
              -23.528564
            ],
            [
              -46.3503111316946,
              -23.5280829968425
            ],
            [
              -46.34989879833471,
              -23.5280367775155
            ],
            [
              -46.3499097023917,
              -23.5277072279675
            ],
            [
              -46.34992423272649,
              -23.527480661294
            ],
            [
              -46.3497529911203,
              -23.5274824232801
            ],
            [
              -46.3497086813485,
              -23.5268370674495
            ],
            [
              -46.3498861956674,
              -23.526255222092
            ],
            [
              -46.3511783064552,
              -23.5260029430953
            ],
            [
              -46.3511664168608,
              -23.5258581713178
            ],
            [
              -46.3510353204158,
              -23.5249587198591
            ],
            [
              -46.3511275259267,
              -23.5249623989519
            ],
            [
              -46.35108452592671,
              -23.5246363989519
            ],
            [
              -46.3510021203458,
              -23.5246463901993
            ],
            [
              -46.35091014303601,
              -23.5242108977764
            ],
            [
              -46.3505256345607,
              -23.5242520608985
            ],
            [
              -46.3499240381681,
              -23.524264802135
            ],
            [
              -46.3498908282708,
              -23.5241259438075
            ],
            [
              -46.3497626967448,
              -23.524132627381
            ],
            [
              -46.3491085669199,
              -23.5236597554117
            ],
            [
              -46.3485733536772,
              -23.5234118726677
            ],
            [
              -46.3493252508349,
              -23.5227158061952
            ],
            [
              -46.3494502714171,
              -23.5224495166645
            ],
            [
              -46.34944356032021,
              -23.5224438449364
            ],
            [
              -46.34930758892,
              -23.5223289318575
            ],
            [
              -46.348985006833,
              -23.5222931500077
            ],
            [
              -46.3483934467248,
              -23.5222445617484
            ],
            [
              -46.3478503294534,
              -23.5221970207144
            ],
            [
              -46.3476162844168,
              -23.5222532898602
            ],
            [
              -46.3474099879397,
              -23.5220951253562
            ],
            [
              -46.3474597118593,
              -23.5218602846654
            ],
            [
              -46.3474727118593,
              -23.5217002846656
            ],
            [
              -46.3474089504391,
              -23.5215592659121
            ],
            [
              -46.3472273856819,
              -23.5215691218723
            ],
            [
              -46.3471598797356,
              -23.521661969497
            ],
            [
              -46.347080846909,
              -23.5216877128059
            ],
            [
              -46.3470410395532,
              -23.5217908329836
            ],
            [
              -46.3464597816106,
              -23.5220196887726
            ],
            [
              -46.3463396449395,
              -23.5220181060223
            ],
            [
              -46.3458720347235,
              -23.522018901328
            ],
            [
              -46.3452106351555,
              -23.5220672397511
            ],
            [
              -46.3444837343719,
              -23.5221202611051
            ],
            [
              -46.3443094484626,
              -23.5214345121391
            ],
            [
              -46.34416600410669,
              -23.5210381981765
            ],
            [
              -46.3440065887154,
              -23.5204913275474
            ],
            [
              -46.3438495574383,
              -23.5202154755407
            ],
            [
              -46.3440612835945,
              -23.5199874400307
            ],
            [
              -46.3440159609865,
              -23.519829729784
            ],
            [
              -46.343820284545,
              -23.5198168700524
            ],
            [
              -46.34366860637829,
              -23.5193179542351
            ],
            [
              -46.3438417921372,
              -23.5182973582701
            ],
            [
              -46.343988997568,
              -23.5182479918643
            ],
            [
              -46.34411644722461,
              -23.5182101189488
            ],
            [
              -46.3443099702515,
              -23.518197057055
            ],
            [
              -46.3444969327663,
              -23.5180638713007
            ],
            [
              -46.3446490489426,
              -23.5179710031881
            ],
            [
              -46.3449557969477,
              -23.51765237945691
            ],
            [
              -46.3453292404935,
              -23.5174196932942
            ],
            [
              -46.3454865874202,
              -23.5174044839125
            ],
            [
              -46.3458783683845,
              -23.5172039847474
            ],
            [
              -46.3467564327083,
              -23.5167452846535
            ],
            [
              -46.3470113141375,
              -23.5166117386892
            ],
            [
              -46.34715731193149,
              -23.5164703513506
            ],
            [
              -46.3473550755232,
              -23.5162750580398
            ],
            [
              -46.3476698728204,
              -23.5157086729843
            ],
            [
              -46.3477454965272,
              -23.5155936257971
            ],
            [
              -46.3479751611739,
              -23.5153298706272
            ],
            [
              -46.3479739393517,
              -23.515327486271
            ],
            [
              -46.3481679096775,
              -23.5152046074512
            ],
            [
              -46.3484163650371,
              -23.5149822293794
            ],
            [
              -46.3484774577863,
              -23.5149228850422
            ],
            [
              -46.3486339699566,
              -23.5149394841808
            ],
            [
              -46.3489290222219,
              -23.5148133669389
            ],
            [
              -46.3493516436855,
              -23.5145399071954
            ],
            [
              -46.35009658989599,
              -23.5140195842284
            ],
            [
              -46.3503551334219,
              -23.51379769457211
            ],
            [
              -46.3506208302106,
              -23.5135128985935
            ],
            [
              -46.350671206513,
              -23.51352018431
            ],
            [
              -46.3512484059489,
              -23.5136036622796
            ],
            [
              -46.3513620002632,
              -23.5138362313619
            ],
            [
              -46.3524408476306,
              -23.5132232506096
            ],
            [
              -46.35255948219749,
              -23.5133978485694
            ],
            [
              -46.352878920341,
              -23.5138679723536
            ],
            [
              -46.3541077934273,
              -23.5144052137942
            ],
            [
              -46.3567987485028,
              -23.5134509485061
            ],
            [
              -46.3575215879193,
              -23.51436838413611
            ],
            [
              -46.3573604774127,
              -23.5144641847573
            ],
            [
              -46.3574924774127,
              -23.5146661847573
            ],
            [
              -46.3578936941792,
              -23.5152508321076
            ],
            [
              -46.3583630430589,
              -23.5159093798367
            ],
            [
              -46.3584883077135,
              -23.5161053783655
            ],
            [
              -46.3586629134845,
              -23.5163775231002
            ],
            [
              -46.35988119591829,
              -23.51810994564
            ],
            [
              -46.35996281424309,
              -23.5182259640627
            ],
            [
              -46.3592835663636,
              -23.518417950416
            ],
            [
              -46.3592429560611,
              -23.5184230090139
            ],
            [
              -46.3592128458289,
              -23.5184352128617
            ],
            [
              -46.35911533837211,
              -23.5184899201527
            ],
            [
              -46.3590473383722,
              -23.5185119201527
            ],
            [
              -46.35887973357131,
              -23.5186041014299
            ],
            [
              -46.358850342122,
              -23.518632697479
            ],
            [
              -46.35890872328631,
              -23.5187247593506
            ],
            [
              -46.3588217673035,
              -23.5187651552447
            ],
            [
              -46.35623381004271,
              -23.5199386627039
            ],
            [
              -46.3564257419978,
              -23.5205166594681
            ],
            [
              -46.356384,
              -23.520693
            ],
            [
              -46.356375,
              -23.520719
            ],
            [
              -46.35609,
              -23.521667
            ],
            [
              -46.355847,
              -23.522493
            ],
            [
              -46.354309107128,
              -23.5229610106976
            ],
            [
              -46.3544436360028,
              -23.5240276971412
            ],
            [
              -46.3544222498686,
              -23.5245077571484
            ],
            [
              -46.3544492503465,
              -23.5251095331944
            ],
            [
              -46.3545425758931,
              -23.5265908516155
            ],
            [
              -46.3558443282409,
              -23.5264837117379
            ],
            [
              -46.3563873117148,
              -23.5264908481307
            ],
            [
              -46.3568548971524,
              -23.5287474432778
            ],
            [
              -46.3576210932591,
              -23.5287777245309
            ]
          ]
        ]
      }
    },
    {
      "type": "Feature",
      "properties": {
        "name": "SPPOA004H",
        "description": "<center><table><tr bgcolor=\"#E3E3F3\">\n<th>Id SGF</th>\n<td>80588</td>\n</tr><tr bgcolor=\"\">\n<th>Codigo</th>\n<td>SPPOA004H</td>\n</tr><tr bgcolor=\"#E3E3F3\">\n<th>Situacao</th>\n<td>Ativo</td>\n</tr><tr bgcolor=\"\">\n<th>Status</th>\n<td>Existente</td>\n</tr></table></center>",
        "technology": "Rede Neutra",
        "region": "SPPOA004H",
        "pop": "POP Central"
      },
      "geometry": {
        "type": "Polygon",
        "coordinates": [
          [
            [
              -46.3500181792737,
              -23.5288557611669
            ],
            [
              -46.3500605027616,
              -23.5288829379872
            ],
            [
              -46.3499265027616,
              -23.5290059379872
            ],
            [
              -46.34967346958651,
              -23.5288871596226
            ],
            [
              -46.3495472325032,
              -23.5286494047978
            ],
            [
              -46.3482023207499,
              -23.5279383833328
            ],
            [
              -46.3456959525297,
              -23.5265678062048
            ],
            [
              -46.3454370993622,
              -23.5264278972933
            ],
            [
              -46.3440680629362,
              -23.5256621354377
            ],
            [
              -46.34366900000001,
              -23.525451
            ],
            [
              -46.34317399999999,
              -23.525176
            ],
            [
              -46.343173,
              -23.525175
            ],
            [
              -46.341837,
              -23.524391
            ],
            [
              -46.341608,
              -23.52429
            ],
            [
              -46.341212,
              -23.524042
            ],
            [
              -46.3408792126413,
              -23.5238552616071
            ],
            [
              -46.3405662126413,
              -23.52371926160709
            ],
            [
              -46.3402544460299,
              -23.5236294823042
            ],
            [
              -46.33999599999999,
              -23.523557
            ],
            [
              -46.339725,
              -23.523509
            ],
            [
              -46.3394419415905,
              -23.5233556500335
            ],
            [
              -46.3387843580657,
              -23.5234385940681
            ],
            [
              -46.33876755026699,
              -23.52343871001129
            ],
            [
              -46.338525550267,
              -23.5234397100113
            ],
            [
              -46.33779512732659,
              -23.52344541795861
            ],
            [
              -46.33610987382801,
              -23.5233565240986
            ],
            [
              -46.3361533308394,
              -23.5232404408327
            ],
            [
              -46.33777596634151,
              -23.5232969015909
            ],
            [
              -46.3377332582827,
              -23.5215994832079
            ],
            [
              -46.3378257753943,
              -23.5211980706681
            ],
            [
              -46.3377877753943,
              -23.5205850706681
            ],
            [
              -46.337952,
              -23.520481
            ],
            [
              -46.337956,
              -23.52044
            ],
            [
              -46.337964,
              -23.520401
            ],
            [
              -46.337977,
              -23.520362
            ],
            [
              -46.337995,
              -23.520325
            ],
            [
              -46.33805,
              -23.520241
            ],
            [
              -46.338003,
              -23.520214
            ],
            [
              -46.33793300000001,
              -23.520169
            ],
            [
              -46.337852,
              -23.520116
            ],
            [
              -46.337761,
              -23.520062
            ],
            [
              -46.337217,
              -23.519741
            ],
            [
              -46.337158,
              -23.519702
            ],
            [
              -46.33717,
              -23.519641
            ],
            [
              -46.337327,
              -23.519354
            ],
            [
              -46.337628,
              -23.518785
            ],
            [
              -46.337629,
              -23.518783
            ],
            [
              -46.33789,
              -23.518275
            ],
            [
              -46.33811200000001,
              -23.51783
            ],
            [
              -46.3381151006136,
              -23.5177945607625
            ],
            [
              -46.3382187728872,
              -23.5171585010327
            ],
            [
              -46.3383224671819,
              -23.51652206260029
            ],
            [
              -46.3385243496075,
              -23.51653380183
            ],
            [
              -46.3389781811525,
              -23.5165601916096
            ],
            [
              -46.339151754108,
              -23.516854452047
            ],
            [
              -46.3391323131214,
              -23.5174564584178
            ],
            [
              -46.33965428438071,
              -23.5175488844733
            ],
            [
              -46.3398243897477,
              -23.5175565649389
            ],
            [
              -46.3401158870599,
              -23.5175250327387
            ],
            [
              -46.34008276690291,
              -23.5174599843209
            ],
            [
              -46.3401380453473,
              -23.5173850556231
            ],
            [
              -46.3411211228138,
              -23.517402558274
            ],
            [
              -46.3412769638327,
              -23.5175575308436
            ],
            [
              -46.3415068883166,
              -23.517585214644
            ],
            [
              -46.3415985858553,
              -23.517693839086
            ],
            [
              -46.3415830964929,
              -23.5179251262125
            ],
            [
              -46.3417954280456,
              -23.5181612237513
            ],
            [
              -46.3420775385241,
              -23.5188335598613
            ],
            [
              -46.3423108838201,
              -23.5186879826631
            ],
            [
              -46.3429770445791,
              -23.5182733295786
            ],
            [
              -46.3431550431047,
              -23.5183507500637
            ],
            [
              -46.3438386999816,
              -23.518302888028
            ],
            [
              -46.34366904073779,
              -23.519321931783
            ],
            [
              -46.343820284545,
              -23.5198168700524
            ],
            [
              -46.3440159609865,
              -23.519829729784
            ],
            [
              -46.3440612835945,
              -23.5199874400307
            ],
            [
              -46.3438495574383,
              -23.5202154755407
            ],
            [
              -46.3440090820416,
              -23.52050280879
            ],
            [
              -46.34416600410669,
              -23.5210381981765
            ],
            [
              -46.3443094484626,
              -23.5214345121391
            ],
            [
              -46.3444837343719,
              -23.5221202611051
            ],
            [
              -46.3458720347235,
              -23.522018901328
            ],
            [
              -46.3463396449395,
              -23.5220181060223
            ],
            [
              -46.3464507894779,
              -23.522030469951
            ],
            [
              -46.3470410395532,
              -23.5217908329836
            ],
            [
              -46.347080846909,
              -23.5216877128059
            ],
            [
              -46.3471598797356,
              -23.5216619694971
            ],
            [
              -46.3472273856819,
              -23.5215691218723
            ],
            [
              -46.3474089504391,
              -23.5215592659121
            ],
            [
              -46.3474727118593,
              -23.5217002846656
            ],
            [
              -46.3474597118593,
              -23.5218602846657
            ],
            [
              -46.3474099879397,
              -23.5220951253562
            ],
            [
              -46.3476162844168,
              -23.5222532898602
            ],
            [
              -46.3478503294534,
              -23.5221970207144
            ],
            [
              -46.3480375256232,
              -23.5222158345757
            ],
            [
              -46.3481925256232,
              -23.5222258345757
            ],
            [
              -46.3483890879621,
              -23.5222426954113
            ],
            [
              -46.3485709084781,
              -23.5222594927653
            ],
            [
              -46.3487853784186,
              -23.522275624622
            ],
            [
              -46.348985006833,
              -23.5222931500077
            ],
            [
              -46.34930758892,
              -23.5223289318575
            ],
            [
              -46.3494502714171,
              -23.5224495166645
            ],
            [
              -46.34936656602839,
              -23.5226279173803
            ],
            [
              -46.3493252508349,
              -23.5227158061952
            ],
            [
              -46.3485733536772,
              -23.5234118726677
            ],
            [
              -46.349108566919,
              -23.5236597554113
            ],
            [
              -46.3497626967448,
              -23.524132627381
            ],
            [
              -46.3498908282708,
              -23.5241259438075
            ],
            [
              -46.3499240381681,
              -23.524264802135
            ],
            [
              -46.3505256345607,
              -23.5242520608985
            ],
            [
              -46.35091014303601,
              -23.5242108977764
            ],
            [
              -46.3509738792274,
              -23.5244632092039
            ],
            [
              -46.3510021203458,
              -23.5246463901993
            ],
            [
              -46.35108452592671,
              -23.5246363989519
            ],
            [
              -46.3511275259267,
              -23.5249623989519
            ],
            [
              -46.351042315489,
              -23.524966252632
            ],
            [
              -46.3510545295512,
              -23.5251073119395
            ],
            [
              -46.3511053693693,
              -23.5254943408753
            ],
            [
              -46.3511664168608,
              -23.5258581713178
            ],
            [
              -46.3511640272665,
              -23.5259095031405
            ],
            [
              -46.3511783064552,
              -23.5260029430953
            ],
            [
              -46.3498861956674,
              -23.526255222092
            ],
            [
              -46.3497077794306,
              -23.5268297687232
            ],
            [
              -46.3497289911203,
              -23.5270014232801
            ],
            [
              -46.3497529911203,
              -23.5274824232801
            ],
            [
              -46.34992423272649,
              -23.527480661294
            ],
            [
              -46.34989879833471,
              -23.5280367775155
            ],
            [
              -46.3503111316946,
              -23.5280829968425
            ],
            [
              -46.349887971893,
              -23.5282799421123
            ],
            [
              -46.34960257326,
              -23.528541396621
            ],
            [
              -46.3499193304381,
              -23.5287804317064
            ],
            [
              -46.3499813304381,
              -23.5288254317064
            ],
            [
              -46.3500181792737,
              -23.5288557611669
            ]
          ]
        ]
      }
    },
    {
      "type": "Feature",
      "properties": {
        "name": "SPPOA005H",
        "description": "<center><table><tr bgcolor=\"#E3E3F3\">\n<th>Id SGF</th>\n<td>81085</td>\n</tr><tr bgcolor=\"\">\n<th>Codigo</th>\n<td>SPPOA005H</td>\n</tr><tr bgcolor=\"#E3E3F3\">\n<th>Situacao</th>\n<td>Ativo</td>\n</tr><tr bgcolor=\"\">\n<th>Status</th>\n<td>Existente</td>\n</tr></table></center>",
        "technology": "Rede Neutra",
        "region": "SPPOA005H",
        "pop": "POP Central"
      },
      "geometry": {
        "type": "Polygon",
        "coordinates": [
          [
            [
              -46.34985656027061,
              -23.529174245976
            ],
            [
              -46.3499198174744,
              -23.5298347064256
            ],
            [
              -46.3490052572038,
              -23.5301264604496
            ],
            [
              -46.34836970298101,
              -23.5305949457915
            ],
            [
              -46.34806670298099,
              -23.5309309457915
            ],
            [
              -46.3479502567006,
              -23.5310260424134
            ],
            [
              -46.3478752567006,
              -23.5311100424134
            ],
            [
              -46.3478003526915,
              -23.531151651033
            ],
            [
              -46.3477353526915,
              -23.531236651033
            ],
            [
              -46.34774707925889,
              -23.5312935271411
            ],
            [
              -46.34785407925889,
              -23.5313835271411
            ],
            [
              -46.3480813057093,
              -23.5318107181951
            ],
            [
              -46.347888606524,
              -23.53212557153221
            ],
            [
              -46.3479053683565,
              -23.5321813868823
            ],
            [
              -46.34785785511559,
              -23.5323900165933
            ],
            [
              -46.3477535309149,
              -23.5325987037114
            ],
            [
              -46.3474096607425,
              -23.5332747888474
            ],
            [
              -46.3472384817556,
              -23.5344268446038
            ],
            [
              -46.3473097478846,
              -23.5352051717692
            ],
            [
              -46.34704482656029,
              -23.535556217118
            ],
            [
              -46.346176079181,
              -23.5352237174185
            ],
            [
              -46.346136079181,
              -23.5352187174185
            ],
            [
              -46.3461207976245,
              -23.5352170291046
            ],
            [
              -46.34607979762449,
              -23.5352220291046
            ],
            [
              -46.3458839334302,
              -23.535302261201
            ],
            [
              -46.3456444621444,
              -23.5354389613038
            ],
            [
              -46.34560548977889,
              -23.5352933534691
            ],
            [
              -46.3455694042425,
              -23.5355456442439
            ],
            [
              -46.3455087163939,
              -23.5359249810216
            ],
            [
              -46.34547677147561,
              -23.5360137139083
            ],
            [
              -46.34546477147559,
              -23.5361287139083
            ],
            [
              -46.3454654932668,
              -23.5361893973258
            ],
            [
              -46.3454643971363,
              -23.5367727653149
            ],
            [
              -46.3457928258542,
              -23.5376392414782
            ],
            [
              -46.345029974974,
              -23.5378994178269
            ],
            [
              -46.3436238183757,
              -23.5386173776543
            ],
            [
              -46.34347,
              -23.538521
            ],
            [
              -46.343453,
              -23.538536
            ],
            [
              -46.34343799999999,
              -23.538553
            ],
            [
              -46.34339200000001,
              -23.538516
            ],
            [
              -46.34313,
              -23.53818100000001
            ],
            [
              -46.343118,
              -23.538165
            ],
            [
              -46.34308100000001,
              -23.538135
            ],
            [
              -46.343059,
              -23.538126
            ],
            [
              -46.343034,
              -23.538122
            ],
            [
              -46.34301000000001,
              -23.538122
            ],
            [
              -46.342963,
              -23.538137
            ],
            [
              -46.342945,
              -23.538147
            ],
            [
              -46.3425404393079,
              -23.5387952482894
            ],
            [
              -46.3419304393079,
              -23.5390912482894
            ],
            [
              -46.3418346161199,
              -23.5391351025933
            ],
            [
              -46.34153161611989,
              -23.5392711025933
            ],
            [
              -46.3405214160797,
              -23.5397987483335
            ],
            [
              -46.3399064160797,
              -23.5400897483335
            ],
            [
              -46.3395375205565,
              -23.5402640688943
            ],
            [
              -46.3389505422745,
              -23.5405317407872
            ],
            [
              -46.3389255422745,
              -23.5402847407872
            ],
            [
              -46.339005802577,
              -23.5396809776344
            ],
            [
              -46.339035802577,
              -23.5394399776344
            ],
            [
              -46.3390700055175,
              -23.5392151666472
            ],
            [
              -46.3391070055175,
              -23.5390291666472
            ],
            [
              -46.33910920792979,
              -23.538826294732
            ],
            [
              -46.3391132079298,
              -23.538720294732
            ],
            [
              -46.3392726657007,
              -23.5384029371652
            ],
            [
              -46.3392556657007,
              -23.5382169371652
            ],
            [
              -46.33920693046029,
              -23.5375665455505
            ],
            [
              -46.3391750848761,
              -23.5373275481134
            ],
            [
              -46.33842560328511,
              -23.5371058555404
            ],
            [
              -46.33827160328511,
              -23.5370738555404
            ],
            [
              -46.3382028106563,
              -23.5370646062711
            ],
            [
              -46.3375784268346,
              -23.5369147758771
            ],
            [
              -46.3377116161784,
              -23.5358431696061
            ],
            [
              -46.3376306225783,
              -23.5344733507893
            ],
            [
              -46.33668853702459,
              -23.5344395036521
            ],
            [
              -46.33668632951089,
              -23.5343611791987
            ],
            [
              -46.3367387870095,
              -23.534361730673
            ],
            [
              -46.3367343693413,
              -23.5344290234828
            ],
            [
              -46.3376269812367,
              -23.5344458709674
            ],
            [
              -46.3376256770935,
              -23.5337118377662
            ],
            [
              -46.3373307733102,
              -23.5329883839797
            ],
            [
              -46.3363941986517,
              -23.5333081980297
            ],
            [
              -46.3364182814663,
              -23.5333861119002
            ],
            [
              -46.3363823358841,
              -23.5333936515423
            ],
            [
              -46.3363607685348,
              -23.5333064023582
            ],
            [
              -46.3373263299865,
              -23.5329761766808
            ],
            [
              -46.3372590852691,
              -23.5327961987315
            ],
            [
              -46.3380856511812,
              -23.5324556759228
            ],
            [
              -46.3377604657801,
              -23.5310884389996
            ],
            [
              -46.33684190101399,
              -23.5313870453488
            ],
            [
              -46.33670490663521,
              -23.5309762100218
            ],
            [
              -46.3367840904215,
              -23.5309232187338
            ],
            [
              -46.3368074566512,
              -23.5309926084119
            ],
            [
              -46.3367434645059,
              -23.5310036216014
            ],
            [
              -46.3368774372891,
              -23.5313491638872
            ],
            [
              -46.33774657128941,
              -23.5310330073806
            ],
            [
              -46.3373991515361,
              -23.5300321162489
            ],
            [
              -46.3357821100605,
              -23.5305577593878
            ],
            [
              -46.33573498180819,
              -23.530497020937
            ],
            [
              -46.3357693793654,
              -23.5304809454711
            ],
            [
              -46.335797119424,
              -23.5305341607658
            ],
            [
              -46.3373840626758,
              -23.5300041493045
            ],
            [
              -46.3373047201093,
              -23.5297985002349
            ],
            [
              -46.33723429405231,
              -23.5296322370443
            ],
            [
              -46.3371328860129,
              -23.5293675055004
            ],
            [
              -46.33636512705191,
              -23.5296299171079
            ],
            [
              -46.3361088285487,
              -23.5297014291093
            ],
            [
              -46.334937402912,
              -23.5300875204779
            ],
            [
              -46.33498628766439,
              -23.5302041007415
            ],
            [
              -46.33393988040611,
              -23.5305630798767
            ],
            [
              -46.33394554200509,
              -23.5306272281532
            ],
            [
              -46.3339011606986,
              -23.530643636281
            ],
            [
              -46.33388613459031,
              -23.5305630798767
            ],
            [
              -46.3349584354121,
              -23.5301825381887
            ],
            [
              -46.3349208297769,
              -23.5300929828344
            ],
            [
              -46.3348618285487,
              -23.5301124291093
            ],
            [
              -46.3343092934831,
              -23.5289302626539
            ],
            [
              -46.33396495638859,
              -23.5290340854205
            ],
            [
              -46.333441121085,
              -23.5277759199222
            ],
            [
              -46.3332757082928,
              -23.5274604358674
            ],
            [
              -46.3330067082928,
              -23.5268064358674
            ],
            [
              -46.3323000124557,
              -23.525511867144
            ],
            [
              -46.332911,
              -23.525355
            ],
            [
              -46.33266097921321,
              -23.5247952983067
            ],
            [
              -46.3344319792132,
              -23.5243142983067
            ],
            [
              -46.3353066730414,
              -23.5238578432996
            ],
            [
              -46.3365953483983,
              -23.5237451966896
            ],
            [
              -46.33677848850689,
              -23.5236772500209
            ],
            [
              -46.3394419415904,
              -23.5233556500335
            ],
            [
              -46.339725,
              -23.523509
            ],
            [
              -46.3401280980294,
              -23.5235936018611
            ],
            [
              -46.3403850980294,
              -23.5236676018611
            ],
            [
              -46.3405662126413,
              -23.52371926160709
            ],
            [
              -46.3408792126413,
              -23.5238552616071
            ],
            [
              -46.34115245716399,
              -23.5240502686837
            ],
            [
              -46.3415220626285,
              -23.5243032190968
            ],
            [
              -46.3420389809053,
              -23.5246103339422
            ],
            [
              -46.34295408996361,
              -23.5250390417096
            ],
            [
              -46.3440680629362,
              -23.5256621354377
            ],
            [
              -46.3454401755323,
              -23.5264241923379
            ],
            [
              -46.3454701005095,
              -23.5264470120909
            ],
            [
              -46.347585809551,
              -23.5275983290723
            ],
            [
              -46.34916121214759,
              -23.5284473435379
            ],
            [
              -46.349544425362,
              -23.5286526224206
            ],
            [
              -46.349700298497,
              -23.5289359210269
            ],
            [
              -46.34985656027061,
              -23.529174245976
            ]
          ]
        ]
      }
    },
    {
      "type": "Feature",
      "properties": {
        "name": "SPPOA006H",
        "description": "<center><table><tr bgcolor=\"#E3E3F3\">\n<th>Id SGF</th>\n<td>88828</td>\n</tr><tr bgcolor=\"\">\n<th>Codigo</th>\n<td>SPPOA006H</td>\n</tr><tr bgcolor=\"#E3E3F3\">\n<th>Situacao</th>\n<td>Ativo</td>\n</tr><tr bgcolor=\"\">\n<th>Status</th>\n<td>Existente</td>\n</tr></table></center>",
        "technology": "Rede Neutra",
        "region": "SPPOA006H",
        "pop": "POP Central"
      },
      "geometry": {
        "type": "Polygon",
        "coordinates": [
          [
            [
              -46.3493234734003,
              -23.5487962800397
            ],
            [
              -46.3475690504555,
              -23.5497028773523
            ],
            [
              -46.348157858879,
              -23.5501286521672
            ],
            [
              -46.3473311839189,
              -23.55110209062
            ],
            [
              -46.3487081723035,
              -23.5517175636558
            ],
            [
              -46.34912172789811,
              -23.5523063294728
            ],
            [
              -46.3484658937648,
              -23.5524606988276
            ],
            [
              -46.34893518801619,
              -23.552955358038
            ],
            [
              -46.3492928595443,
              -23.5540224020016
            ],
            [
              -46.3498513834241,
              -23.5546344826976
            ],
            [
              -46.3519664832082,
              -23.5559342588499
            ],
            [
              -46.3521151777495,
              -23.5565517941792
            ],
            [
              -46.3521007501689,
              -23.5575533435539
            ],
            [
              -46.3514060484527,
              -23.5580421666052
            ],
            [
              -46.3513123235979,
              -23.5580730272281
            ],
            [
              -46.3497618181979,
              -23.55816676055201
            ],
            [
              -46.34895924007971,
              -23.5582676630998
            ],
            [
              -46.3483442400797,
              -23.5583056630998
            ],
            [
              -46.3477452321366,
              -23.5581339968119
            ],
            [
              -46.34785849339399,
              -23.5588250733893
            ],
            [
              -46.3470498784853,
              -23.5588247733246
            ],
            [
              -46.34636287848531,
              -23.5588437733246
            ],
            [
              -46.3454388325635,
              -23.5588463566107
            ],
            [
              -46.3444608325635,
              -23.5588423566107
            ],
            [
              -46.3433393011689,
              -23.5584944434024
            ],
            [
              -46.3424540415842,
              -23.5571525398685
            ],
            [
              -46.3422816617451,
              -23.5566821646836
            ],
            [
              -46.3424026617451,
              -23.5563001646836
            ],
            [
              -46.3423695373705,
              -23.5562118802317
            ],
            [
              -46.3422975373705,
              -23.5560978802317
            ],
            [
              -46.3422023102058,
              -23.5559404162047
            ],
            [
              -46.3422990634359,
              -23.5557227564687
            ],
            [
              -46.3424414961383,
              -23.5555382398952
            ],
            [
              -46.3424989784475,
              -23.5547183865531
            ],
            [
              -46.3419747150419,
              -23.5532654287041
            ],
            [
              -46.3417530558028,
              -23.5528973917549
            ],
            [
              -46.3415605186729,
              -23.5523204399046
            ],
            [
              -46.341537,
              -23.552041
            ],
            [
              -46.341714224888,
              -23.5505777980675
            ],
            [
              -46.34155496362791,
              -23.5488642323909
            ],
            [
              -46.3429195053586,
              -23.5485302273837
            ],
            [
              -46.3437841975561,
              -23.549968400601
            ],
            [
              -46.3461101234637,
              -23.5501353501122
            ],
            [
              -46.34691311746519,
              -23.5497788787999
            ],
            [
              -46.3474044208599,
              -23.5495838316105
            ],
            [
              -46.3482929759827,
              -23.5490206158247
            ],
            [
              -46.346538386782,
              -23.5473905206845
            ],
            [
              -46.3452714408256,
              -23.5463211066233
            ],
            [
              -46.34700233873689,
              -23.5454655753247
            ],
            [
              -46.3478588656932,
              -23.5464280480667
            ],
            [
              -46.3488634358802,
              -23.5474345534462
            ],
            [
              -46.3491989089993,
              -23.5476914503788
            ],
            [
              -46.3500073325838,
              -23.5481829561769
            ],
            [
              -46.3501423325838,
              -23.5481279561769
            ],
            [
              -46.3503137018703,
              -23.5480811269323
            ],
            [
              -46.3504457018703,
              -23.5480211269323
            ],
            [
              -46.3505824167986,
              -23.54796651014921
            ],
            [
              -46.35072041679859,
              -23.5479105101492
            ],
            [
              -46.351142081033,
              -23.5477348582708
            ],
            [
              -46.3516061965874,
              -23.5477201540432
            ],
            [
              -46.3519075834631,
              -23.5474281439224
            ],
            [
              -46.35182832906789,
              -23.5471738152806
            ],
            [
              -46.3510549333154,
              -23.5458560545479
            ],
            [
              -46.3506209707054,
              -23.5451166415306
            ],
            [
              -46.34952767535169,
              -23.5438832176948
            ],
            [
              -46.3493955812103,
              -23.54396049751911
            ],
            [
              -46.34944598653849,
              -23.544025622001
            ],
            [
              -46.3494077465943,
              -23.5440551438719
            ],
            [
              -46.3493408313694,
              -23.5439796011097
            ],
            [
              -46.349498996329,
              -23.5438589049641
            ],
            [
              -46.34941279641269,
              -23.5437529228829
            ],
            [
              -46.3501780381071,
              -23.5427825002262
            ],
            [
              -46.3505797653052,
              -23.54237014605789
            ],
            [
              -46.3503597897479,
              -23.5418770762038
            ],
            [
              -46.3509217897479,
              -23.5413760762038
            ],
            [
              -46.35176124299839,
              -23.5408700286157
            ],
            [
              -46.3520152429984,
              -23.5406780286157
            ],
            [
              -46.35208335716199,
              -23.5406044820117
            ],
            [
              -46.35284074527,
              -23.5400086939814
            ],
            [
              -46.3531521993284,
              -23.5397779301639
            ],
            [
              -46.35332969155699,
              -23.5396230397664
            ],
            [
              -46.35351080053071,
              -23.5394863037768
            ],
            [
              -46.3536785824147,
              -23.53934018390069
            ],
            [
              -46.3537209700388,
              -23.5389556913003
            ],
            [
              -46.3536443660528,
              -23.538798979023
            ],
            [
              -46.353995158252,
              -23.5386041938984
            ],
            [
              -46.35406866605861,
              -23.5385945336552
            ],
            [
              -46.3548452210795,
              -23.5387102992253
            ],
            [
              -46.3547507130767,
              -23.5398591305754
            ],
            [
              -46.3534905174166,
              -23.5415793929421
            ],
            [
              -46.35296870104681,
              -23.5429743124051
            ],
            [
              -46.352600834849,
              -23.5441714960136
            ],
            [
              -46.3532934997917,
              -23.5450670444892
            ],
            [
              -46.3549073307153,
              -23.5442526790948
            ],
            [
              -46.35517042039081,
              -23.5450753452426
            ],
            [
              -46.35584035560381,
              -23.5459479026395
            ],
            [
              -46.3554656262655,
              -23.5465940568585
            ],
            [
              -46.3564640456698,
              -23.5481095677391
            ],
            [
              -46.3565946132007,
              -23.54896737234611
            ],
            [
              -46.35688734371481,
              -23.5498416176711
            ],
            [
              -46.3565865279932,
              -23.5499945308228
            ],
            [
              -46.3562000179933,
              -23.5501910048035
            ],
            [
              -46.3555911096499,
              -23.5502867777529
            ],
            [
              -46.35489575523529,
              -23.5501003163868
            ],
            [
              -46.3550892152395,
              -23.550789451515
            ],
            [
              -46.3558016369403,
              -23.5512921252772
            ],
            [
              -46.35590553217639,
              -23.5517164998212
            ],
            [
              -46.3557212721109,
              -23.5520038325887
            ],
            [
              -46.35667,
              -23.552171
            ],
            [
              -46.356428,
              -23.552541
            ],
            [
              -46.355851,
              -23.552881
            ],
            [
              -46.3556299117061,
              -23.5535129891357
            ],
            [
              -46.3554502259679,
              -23.5539454055365
            ],
            [
              -46.3553070062876,
              -23.5543048068726
            ],
            [
              -46.35511400628761,
              -23.5544938068726
            ],
            [
              -46.3549936462339,
              -23.5546491413892
            ],
            [
              -46.3549875416002,
              -23.5546563161806
            ],
            [
              -46.35490070351851,
              -23.5550265499774
            ],
            [
              -46.35486367642779,
              -23.5551848871588
            ],
            [
              -46.3548130972947,
              -23.5554019352471
            ],
            [
              -46.35479363612691,
              -23.5554853739035
            ],
            [
              -46.3547026361269,
              -23.5556223739035
            ],
            [
              -46.3545480651035,
              -23.5558347998568
            ],
            [
              -46.35450506510351,
              -23.5558697998568
            ],
            [
              -46.3543991098249,
              -23.5559952750632
            ],
            [
              -46.3543531098249,
              -23.5560262750632
            ],
            [
              -46.353972,
              -23.5558918
            ],
            [
              -46.3531912678369,
              -23.5555934311271
            ],
            [
              -46.35297032817281,
              -23.5545695848122
            ],
            [
              -46.352097293482,
              -23.5533544371811
            ],
            [
              -46.35171707306289,
              -23.5522493158941
            ],
            [
              -46.35207765494739,
              -23.5511091269049
            ],
            [
              -46.35163676016549,
              -23.55138670116409
            ],
            [
              -46.3505096064312,
              -23.5512920636344
            ],
            [
              -46.3510646440415,
              -23.5506296382761
            ],
            [
              -46.35029587493399,
              -23.5502017107573
            ],
            [
              -46.3498135405477,
              -23.5492319489963
            ],
            [
              -46.3493234734003,
              -23.5487962800397
            ]
          ]
        ]
      }
    }
  ]
}