{
  "type": "FeatureCollection",
  "name": "Suzano",
  "technology": "Rede Neutra",
  "color": "#3b82f6",
  "features": [
    {
      "type": "Feature",
      "properties": {
        "name": "SPSZN002H",
        "description": "<center><table><tr bgcolor=\"#E3E3F3\">\n<th>Id SGF</th>\n<td>77967</td>\n</tr><tr bgcolor=\"\">\n<th>Codigo</th>\n<td>SPSZN002H</td>\n</tr><tr bgcolor=\"#E3E3F3\">\n<th>Situacao</th>\n<td>Ativo</td>\n</tr><tr bgcolor=\"\">\n<th>Status</th>\n<td>Existente</td>\n</tr></table></center>",
        "technology": "Rede Neutra",
        "region": "SPSZN002H",
        "pop": "POP Central"
      },
      "geometry": {
        "type": "Polygon",
        "coordinates": [
          [
            [
              -46.311273,
              -23.552066
            ],
            [
              -46.3107245242041,
              -23.5512951176029
            ],
            [
              -46.3098635035884,
              -23.549581976923
            ],
            [
              -46.3096485345808,
              -23.5490409873689
            ],
            [
              -46.30993030696481,
              -23.5486565356449
            ],
            [
              -46.3097265732541,
              -23.54810344575739
            ],
            [
              -46.3067533364027,
              -23.5482175703982
            ],
            [
              -46.3062100122311,
              -23.542056261234
            ],
            [
              -46.3059862550129,
              -23.5388828584193
            ],
            [
              -46.3048265086871,
              -23.535558353057
            ],
            [
              -46.3052530753788,
              -23.5353166038991
            ],
            [
              -46.3121429039314,
              -23.5329122206775
            ],
            [
              -46.31815752481369,
              -23.5307546290321
            ],
            [
              -46.3194476339402,
              -23.5303118393483
            ],
            [
              -46.320260267655,
              -23.53242934149331
            ],
            [
              -46.3205958209217,
              -23.5337338576498
            ],
            [
              -46.3211212601672,
              -23.5348341547678
            ],
            [
              -46.32156880862291,
              -23.5361305103735
            ],
            [
              -46.3221164358721,
              -23.5373477053065
            ],
            [
              -46.3233866364097,
              -23.5403461647295
            ],
            [
              -46.3245341531979,
              -23.5427496589163
            ],
            [
              -46.3241657065693,
              -23.5433668940551
            ],
            [
              -46.3245284907946,
              -23.5443481291926
            ],
            [
              -46.32436994263699,
              -23.5444783649816
            ],
            [
              -46.3242796820016,
              -23.5442581366816
            ],
            [
              -46.3243996129769,
              -23.5442000817646
            ],
            [
              -46.32419968038939,
              -23.5436414487868
            ],
            [
              -46.3240931434677,
              -23.5433842692652
            ],
            [
              -46.323087731463,
              -23.5437616676123
            ],
            [
              -46.3235271071307,
              -23.5453846050663
            ],
            [
              -46.3244677643685,
              -23.5470929029546
            ],
            [
              -46.3218448974353,
              -23.5480816883427
            ],
            [
              -46.321367405885,
              -23.5487909308451
            ],
            [
              -46.3192228560366,
              -23.5491915297177
            ],
            [
              -46.317721,
              -23.549732
            ],
            [
              -46.316143,
              -23.550301
            ],
            [
              -46.3154960561646,
              -23.5506052768808
            ],
            [
              -46.3163477695052,
              -23.5525066934234
            ],
            [
              -46.3156960586274,
              -23.552622751242
            ],
            [
              -46.315345,
              -23.552469
            ],
            [
              -46.31264600000001,
              -23.553402
            ],
            [
              -46.31241499999999,
              -23.553663
            ],
            [
              -46.311332,
              -23.55239600000001
            ],
            [
              -46.311273,
              -23.552066
            ]
          ]
        ]
      }
    }
  ]
}